{
    "links": {
        "self": "http://www.neowsapp.com/rest/v1/neo/54051169?api_key=iIulBulltgU6a56xZRHN4H3l9WmuAYTsLGpBGhQ2"
    },
    "id": "54051169",
    "neo_reference_id": "54051169",
    "name": "(2020 QV)",
    "designation": "2020 QV",
    "nasa_jpl_url": "http://ssd.jpl.nasa.gov/sbdb.cgi?sstr=54051169",
    "absolute_magnitude_h": 24.723,
    "estimated_diameter": {
        "kilometers": {
            "estimated_diameter_min": 0.0301963866,
            "estimated_diameter_max": 0.0675211731
        },
        "meters": {
            "estimated_diameter_min": 30.1963865765,
            "estimated_diameter_max": 67.5211730599
        },
        "miles": {
            "estimated_diameter_min": 0.0187631589,
            "estimated_diameter_max": 0.0419556988
        },
        "feet": {
            "estimated_diameter_min": 99.0695129356,
            "estimated_diameter_max": 221.5261654218
        }
    },
    "is_potentially_hazardous_asteroid": false,
    "close_approach_data": [
        {
            "close_approach_date": "2020-08-17",
            "close_approach_date_full": "2020-Aug-17 17:40",
            "epoch_date_close_approach": 1597686000000,
            "relative_velocity": {
                "kilometers_per_second": "10.1974088401",
                "kilometers_per_hour": "36710.6718244943",
                "miles_per_hour": "22810.5838345031"
            },
            "miss_distance": {
                "astronomical": "0.1550476398",
                "lunar": "60.3135318822",
                "kilometers": "23194796.662607226",
                "miles": "14412578.3260066788"
            },
            "orbiting_body": "Earth"
        }
    ],
    "orbital_data": {
        "orbit_id": "2",
        "orbit_determination_date": "2020-08-26 07:12:23",
        "first_observation_date": "2020-08-14",
        "last_observation_date": "2020-08-26",
        "data_arc_in_days": 12,
        "observations_used": 13,
        "orbit_uncertainty": "8",
        "minimum_orbit_intersection": ".152688",
        "jupiter_tisserand_invariant": "3.842",
        "epoch_osculation": "2459077.5",
        "eccentricity": ".3799649098290909",
        "semi_major_axis": "1.865608470610935",
        "inclination": "18.10335407078527",
        "ascending_node_longitude": "330.4798347889446",
        "orbital_period": "930.7417262892592",
        "perihelion_distance": "1.156742716298863",
        "perihelion_argument": "344.5694234963164",
        "aphelion_distance": "2.574474224923008",
        "perihelion_time": "2459067.172735889940",
        "mean_anomaly": "3.994464817263564",
        "mean_motion": ".3867882892016361",
        "equinox": "J2000",
        "orbit_class": {
            "orbit_class_type": "AMO",
            "orbit_class_description": "Near-Earth asteroid orbits similar to that of 1221 Amor",
            "orbit_class_range": "1.017 AU < q (perihelion) < 1.3 AU"
        }
    },
    "is_sentry_object": false
}